{
  "type": "FeatureCollection",
  "features": [
    {
      "type": "Feature",
      "properties": {
        "norad_id": 41556,
        "name": "ZIYUAN 3-2 (ZY 3-2)",
        "group": "resource",
        "lat": -52.68368685908518,
        "lon": 67.66092093798797,
        "alt_km": 502.53858618124013,
        "timestamp": "2025-12-09T14:52:25.823242+00:00",
        "meta_object_name": "ZIYUAN 3-2 (ZY 3-2)",
        "meta_object_id": "2016-033A",
        "meta_epoch": "2025-12-09T07:12:54.972864",
        "meta_mean_motion": 15.21423808,
        "meta_eccentricity": 0.00124227,
        "meta_inclination": 97.4042,
        "meta_ra_of_asc_node": 57.5241,
        "meta_arg_of_pericenter": 262.4981,
        "meta_mean_anomaly": 97.4844,
        "meta_ephemeris_type": 0,
        "meta_classification_type": "U",
        "meta_norad_cat_id": 41556,
        "meta_element_set_no": 999,
        "meta_rev_at_epoch": 52911,
        "meta_bstar": 0.0004605571,
        "meta_mean_motion_dot": 0.00010297,
        "meta_mean_motion_ddot": 0,
        "tle_line1": "1 41556U 16033A   25343.30063626  .00010297  00000+0  46056-3 0  9999",
        "tle_line2": "2 41556  97.4042  57.5241 0012422 262.4981  97.4844 15.21423808529114"
      },
      "geometry": {
        "type": "Point",
        "coordinates": [
          67.66092093798797,
          -52.68368685908518
        ]
      }
    },
    {
      "type": "Feature",
      "properties": {
        "norad_id": 41599,
        "name": "CARTOSAT-2C",
        "group": "resource",
        "lat": -80.93615362124116,
        "lon": 96.312145087881,
        "alt_km": 522.4866476561601,
        "timestamp": "2025-12-09T14:52:25.823270+00:00",
        "meta_object_name": "CARTOSAT-2C",
        "meta_object_id": "2016-040A",
        "meta_epoch": "2025-12-09T07:20:37.040064",
        "meta_mean_motion": 15.19243125,
        "meta_eccentricity": 0.00108993,
        "meta_inclination": 97.4766,
        "meta_ra_of_asc_node": 40.5914,
        "meta_arg_of_pericenter": 75.2819,
        "meta_mean_anomaly": 284.9623,
        "meta_ephemeris_type": 0,
        "meta_classification_type": "U",
        "meta_norad_cat_id": 41599,
        "meta_element_set_no": 999,
        "meta_rev_at_epoch": 52488,
        "meta_bstar": 0.00036822391,
        "meta_mean_motion_dot": 7.705e-05,
        "meta_mean_motion_ddot": 0,
        "tle_line1": "1 41599U 16040A   25343.30598426  .00007705  00000+0  36822-3 0  9995",
        "tle_line2": "2 41599  97.4766  40.5914 0010899  75.2819 284.9623 15.19243125524885"
      },
      "geometry": {
        "type": "Point",
        "coordinates": [
          96.312145087881,
          -80.93615362124116
        ]
      }
    },
    {
      "type": "Feature",
      "properties": {
        "norad_id": 41601,
        "name": "SKYSAT-C1",
        "group": "resource",
        "lat": -1.7551076443034432,
        "lon": -159.40601501743808,
        "alt_km": 473.4691505777164,
        "timestamp": "2025-12-09T14:52:25.823285+00:00",
        "meta_object_name": "SKYSAT-C1",
        "meta_object_id": "2016-040C",
        "meta_epoch": "2025-12-09T01:32:49.175520",
        "meta_mean_motion": 15.32485031,
        "meta_eccentricity": 0.00027814,
        "meta_inclination": 96.9825,
        "meta_ra_of_asc_node": 20.2852,
        "meta_arg_of_pericenter": 26.1748,
        "meta_mean_anomaly": 333.9635,
        "meta_ephemeris_type": 0,
        "meta_classification_type": "U",
        "meta_norad_cat_id": 41601,
        "meta_element_set_no": 999,
        "meta_rev_at_epoch": 52871,
        "meta_bstar": 0.00036453268,
        "meta_mean_motion_dot": 0.00011368,
        "meta_mean_motion_ddot": 0,
        "tle_line1": "1 41601U 16040C   25343.06445805  .00011368  00000+0  36453-3 0  9994",
        "tle_line2": "2 41601  96.9825  20.2852 0002781  26.1748 333.9635 15.32485031528715"
      },
      "geometry": {
        "type": "Point",
        "coordinates": [
          -159.40601501743808,
          -1.7551076443034432
        ]
      }
    },
    {
      "type": "Feature",
      "properties": {
        "norad_id": 41603,
        "name": "LAPAN-A3",
        "group": "resource",
        "lat": -23.24199364432517,
        "lon": -15.623353834784535,
        "alt_km": 470.05521874999795,
        "timestamp": "2025-12-09T14:52:25.823296+00:00",
        "meta_object_name": "LAPAN-A3",
        "meta_object_id": "2016-040E",
        "meta_epoch": "2025-12-09T07:08:06.929088",
        "meta_mean_motion": 15.31509295,
        "meta_eccentricity": 0.00100687,
        "meta_inclination": 97.1431,
        "meta_ra_of_asc_node": 340.9785,
        "meta_arg_of_pericenter": 347.0982,
        "meta_mean_anomaly": 13.0001,
        "meta_ephemeris_type": 0,
        "meta_classification_type": "U",
        "meta_norad_cat_id": 41603,
        "meta_element_set_no": 999,
        "meta_rev_at_epoch": 52573,
        "meta_bstar": 0.00019969663,
        "meta_mean_motion_dot": 6.011e-05,
        "meta_mean_motion_ddot": 0,
        "tle_line1": "1 41603U 16040E   25343.29730242  .00006011  00000+0  19970-3 0  9997",
        "tle_line2": "2 41603  97.1431 340.9785 0010068 347.0982  13.0001 15.31509295525732"
      },
      "geometry": {
        "type": "Point",
        "coordinates": [
          -15.623353834784535,
          -23.24199364432517
        ]
      }
    },
    {
      "type": "Feature",
      "properties": {
        "norad_id": 41604,
        "name": "BIROS",
        "group": "resource",
        "lat": -54.471553774976286,
        "lon": -175.07938024996804,
        "alt_km": 313.7271607705625,
        "timestamp": "2025-12-09T14:52:25.823306+00:00",
        "meta_object_name": "BIROS",
        "meta_object_id": "2016-040F",
        "meta_epoch": "2025-12-09T01:47:24.559584",
        "meta_mean_motion": 15.88119261,
        "meta_eccentricity": 0.00032029,
        "meta_inclination": 97.0691,
        "meta_ra_of_asc_node": 14.3635,
        "meta_arg_of_pericenter": 156.004,
        "meta_mean_anomaly": 204.1383,
        "meta_ephemeris_type": 0,
        "meta_classification_type": "U",
        "meta_norad_cat_id": 41604,
        "meta_element_set_no": 999,
        "meta_rev_at_epoch": 52814,
        "meta_bstar": 0.00066699357,
        "meta_mean_motion_dot": 0.00184271,
        "meta_mean_motion_ddot": 0,
        "tle_line1": "1 41604U 16040F   25343.07458981  .00184271  00000+0  66699-3 0  9996",
        "tle_line2": "2 41604  97.0691  14.3635 0003202 156.0040 204.1383 15.88119261528147"
      },
      "geometry": {
        "type": "Point",
        "coordinates": [
          -175.07938024996804,
          -54.471553774976286
        ]
      }
    },
    {
      "type": "Feature",
      "properties": {
        "norad_id": 41727,
        "name": "GAOFEN-3",
        "group": "resource",
        "lat": 34.90279985873813,
        "lon": -16.666553893748784,
        "alt_km": 747.9068373711061,
        "timestamp": "2025-12-09T14:52:25.823317+00:00",
        "meta_object_name": "GAOFEN-3",
        "meta_object_id": "2016-049A",
        "meta_epoch": "2025-12-09T08:03:00.911808",
        "meta_mean_motion": 14.42212994,
        "meta_eccentricity": 0.0001514,
        "meta_inclination": 98.4036,
        "meta_ra_of_asc_node": 348.9733,
        "meta_arg_of_pericenter": 64.3096,
        "meta_mean_anomaly": 295.825,
        "meta_ephemeris_type": 0,
        "meta_classification_type": "U",
        "meta_norad_cat_id": 41727,
        "meta_element_set_no": 999,
        "meta_rev_at_epoch": 49128,
        "meta_bstar": 0.00010928293,
        "meta_mean_motion_dot": 3.17e-06,
        "meta_mean_motion_ddot": 0,
        "tle_line1": "1 41727U 16049A   25343.33542722  .00000317  00000+0  10928-3 0  9999",
        "tle_line2": "2 41727  98.4036 348.9733 0001514  64.3096 295.8250 14.42212994491282"
      },
      "geometry": {
        "type": "Point",
        "coordinates": [
          -16.666553893748784,
          34.90279985873813
        ]
      }
    },
    {
      "type": "Feature",
      "properties": {
        "norad_id": 41771,
        "name": "SKYSAT-C4",
        "group": "resource",
        "lat": 8.620729031434635,
        "lon": 7.901306915953292,
        "alt_km": 442.2547550545487,
        "timestamp": "2025-12-09T14:52:25.823328+00:00",
        "meta_object_name": "SKYSAT-C4",
        "meta_object_id": "2016-058B",
        "meta_epoch": "2025-12-09T00:49:12.473760",
        "meta_mean_motion": 15.42085038,
        "meta_eccentricity": 0.00011565,
        "meta_inclination": 96.9374,
        "meta_ra_of_asc_node": 8.402,
        "meta_arg_of_pericenter": 132.7744,
        "meta_mean_anomaly": 227.3602,
        "meta_ephemeris_type": 0,
        "meta_classification_type": "U",
        "meta_norad_cat_id": 41771,
        "meta_element_set_no": 999,
        "meta_rev_at_epoch": 51610,
        "meta_bstar": 0.00040944192,
        "meta_mean_motion_dot": 0.00017439,
        "meta_mean_motion_ddot": 0,
        "tle_line1": "1 41771U 16058B   25343.03417215  .00017439  00000+0  40944-3 0  9997",
        "tle_line2": "2 41771  96.9374   8.4020 0001156 132.7744 227.3602 15.42085038516106"
      },
      "geometry": {
        "type": "Point",
        "coordinates": [
          7.901306915953292,
          8.620729031434635
        ]
      }
    }
  ]
}